NORAD_CAT_ID,OBJECT_NAME,OBJECT_TYPE,EPOCH,MEAN_MOTION,ECCENTRICITY,INCLINATION,RA_OF_ASC_NODE,ARG_OF_PERICENTER,MEAN_ANOMALY,BSTAR,MEAN_MOTION_DOT,MEAN_MOTION_DDOT,TLE_LINE0,TLE_LINE1,TLE_LINE2,SEMIMAJOR_AXIS,PERIOD,APOGEE,PERIGEE,DECAYED
53396.0,STARLINK-4524,PAYLOAD,2023-03-09 03:33:48,15.08852786,8.79e-05,53.2159,6.6919,59.2925,300.8153,0.00080036,0.00012477,0.0,0 STARLINK-4524,1 53396U 22097J   23068.14847946  .00012477  00000-0  80036-3 0  9999,2 53396  53.2159   6.6919 0000879  59.2925 300.8153 15.08852786 32487,6917.841,95.437,540.314,539.098,0.0
53396.0,STARLINK-4524,PAYLOAD,2023-03-10 04:59:58,15.08882136,0.000128,53.2179,1.9313,94.9283,265.1855,0.0016317,0.00025806,0.0,0 STARLINK-4524,1 53396U 22097J   23069.20831303  .00025806  00000-0  16317-2 0  9997,2 53396  53.2179   1.9313 0001280  94.9283 265.1855 15.08882136 32647,6917.752,95.435,540.502,538.731,0.0
53396.0,STARLINK-4524,PAYLOAD,2023-03-10 12:56:54,15.08827016,0.0002047,53.2183,0.4475,56.2213,303.8974,-0.00033428,-5.603e-05,0.0,0 STARLINK-4524,1 53396U 22097J   23069.53952284 -.00005603  00000-0 -33428-3 0  9993,2 53396  53.2183   0.4475 0002047  56.2213 303.8974 15.08827016 32694,6917.92,95.438,541.201,538.369,0.0
53396.0,STARLINK-4524,PAYLOAD,2023-03-11 04:50:47,15.088113,0.00016,53.2168,357.4708,67.6257,292.4904,0.00033662,5.069e-05,0.0,0 STARLINK-4524,1 53396U 22097J   23070.20193846  .00005069  00000-0  33662-3 0  9994,2 53396  53.2168 357.4708 0001600  67.6257 292.4904 15.08811300 32795,6917.968,95.439,540.94,538.726,0.0
53396.0,STARLINK-4524,PAYLOAD,2023-03-11 23:55:24,15.08892322,0.0001524,53.2167,353.9049,49.3493,310.7632,0.0026892,0.00042833,0.0,0 STARLINK-4524,1 53396U 22097J   23070.99680834  .00042833  00000-0  26892-2 0  9994,2 53396  53.2167 353.9049 0001524  49.3493 310.7632 15.08892322 32916,6917.72,95.434,540.64,538.531,0.0
53396.0,STARLINK-4524,PAYLOAD,2023-03-12 23:46:10,15.08886063,0.000152,53.2171,349.4434,94.7867,265.3298,0.0025945,0.00041298,0.0,0 STARLINK-4524,1 53396U 22097J   23071.99040120  .00041298  00000-0  25945-2 0  9995,2 53396  53.2171 349.4434 0001520  94.7867 265.3298 15.08886063 33069,6917.74,95.435,540.656,538.553,0.0
53396.0,STARLINK-4524,PAYLOAD,2023-03-13 06:07:42,15.08876637,0.0001225,53.2165,348.2543,61.3267,298.7848,0.0022947,0.00036458,0.0,0 STARLINK-4524,1 53396U 22097J   23072.25535675  .00036458  00000-0  22947-2 0  9990,2 53396  53.2165 348.2543 0001225  61.3267 298.7848 15.08876637 33108,6917.768,95.435,540.481,538.786,0.0
53396.0,STARLINK-4524,PAYLOAD,2023-03-13 22:01:35,15.08821142,0.0001205,53.2173,345.2835,75.4882,284.6244,0.001552,0.00024486,0.0,0 STARLINK-4524,1 53396U 22097J   23072.91777442  .00024486  00000-0  15520-2 0  9990,2 53396  53.2173 345.2835 0001205  75.4882 284.6244 15.08821142 33694,6917.938,95.439,540.637,538.969,0.0
53396.0,STARLINK-4524,PAYLOAD,2023-03-14 05:58:31,15.08853191,0.0001138,53.2167,343.7948,93.0742,267.038,0.0028224,0.00044933,0.0,0 STARLINK-4524,1 53396U 22097J   23073.24897411  .00044933  00000-0  28224-2 0  9990,2 53396  53.2167 343.7948 0001138  93.0742 267.0380 15.08853191 33258,6917.84,95.437,540.492,538.918,0.0
53396.0,STARLINK-4524,PAYLOAD,2023-03-14 10:44:40,15.08837666,0.0001143,53.2162,342.9036,107.1295,252.9823,0.0016345,0.00025819,0.0,0 STARLINK-4524,1 53396U 22097J   23073.44769564  .00025819  00000-0  16345-2 0  9992,2 53396  53.2162 342.9036 0001143 107.1295 252.9823 15.08837666 33285,6917.888,95.438,540.543,538.962,0.0
53396.0,STARLINK-4524,PAYLOAD,2023-03-14 21:52:22,15.08877393,8.67e-05,53.216,340.8209,98.7841,261.3249,0.0025203,0.00040092,0.0,0 STARLINK-4524,1 53396U 22097J   23073.91136910  .00040092  00000-0  25203-2 0  9990,2 53396  53.2160 340.8209 0000867  98.7841 261.3249 15.08877393 33845,6917.766,95.435,540.231,539.031,0.0
53396.0,STARLINK-4524,PAYLOAD,2023-03-15 02:38:31,15.08897827,9.68e-05,53.2164,339.9286,96.4703,263.6399,0.0031825,0.00050807,0.0,0 STARLINK-4524,1 53396U 22097J   23074.11008336  .00050807  00000-0  31825-2 0  9995,2 53396  53.2164 339.9286 0000968  96.4703 263.6399 15.08897827 33381,6917.704,95.434,540.238,538.899,0.0
53396.0,STARLINK-4524,PAYLOAD,2023-03-15 21:43:08,15.0886541,0.0001186,53.2156,336.36,130.7049,229.4047,0.0021246,0.00033711,0.0,0 STARLINK-4524,1 53396U 22097J   23074.90496420  .00033711  00000-0  21246-2 0  9998,2 53396  53.2156 336.3600 0001186 130.7049 229.4047 15.08865410 33991,6917.803,95.436,540.488,538.847,0.0
53396.0,STARLINK-4524,PAYLOAD,2023-03-16 05:40:04,15.08881482,0.0001273,53.2157,334.8728,106.0483,254.0649,0.0021975,0.00034898,0.0,0 STARLINK-4524,1 53396U 22097J   23075.23615936  .00034898  00000-0  21975-2 0  9996,2 53396  53.2157 334.8728 0001273 106.0483 254.0649 15.08881482 33552,6917.754,95.435,540.499,538.738,0.0
53396.0,STARLINK-4524,PAYLOAD,2023-03-16 07:15:27,15.08818086,0.0001123,53.2148,334.5762,121.4167,238.6935,-0.0012479,-0.00020081,0.0,0 STARLINK-4524,1 53396U 22097J   23075.30240527 -.00020081  00000-0 -12479-2 0  9994,2 53396  53.2148 334.5762 0001123 121.4167 238.6935 15.08818086 33568,6917.947,95.439,540.589,539.035,0.0
53396.0,STARLINK-4524,PAYLOAD,2023-03-17 02:20:07,15.08823427,0.0001641,53.2157,331.0058,58.7517,301.3636,0.0021981,0.00034852,0.0,0 STARLINK-4524,1 53396U 22097J   23076.09730737  .00034852  00000-0  21981-2 0  9995,2 53396  53.2157 331.0058 0001641  58.7517 301.3636 15.08823427 33688,6917.931,95.439,540.931,538.661,0.0
53396.0,STARLINK-4524,PAYLOAD,2023-03-17 10:17:03,15.0884137,0.0001548,53.2155,329.519,64.8524,295.2628,0.0019204,0.00030409,0.0,0 STARLINK-4524,1 53396U 22097J   23076.42850846  .00030409  00000-0  19204-2 0  9995,2 53396  53.2155 329.5190 0001548  64.8524 295.2628 15.08841370 34227,6917.876,95.437,540.812,538.67,0.0
53396.0,STARLINK-4524,PAYLOAD,2023-03-18 10:07:49,15.08866333,0.000177,53.215,325.0586,71.1675,288.9509,0.001144,0.00017979,0.0,0 STARLINK-4524,1 53396U 22097J   23077.42209681  .00017979  00000-0  11440-2 0  9992,2 53396  53.2150 325.0586 0001770  71.1675 288.9509 15.08866333 33881,6917.8,95.436,540.889,538.44,0.0
53396.0,STARLINK-4524,PAYLOAD,2023-03-18 19:40:07,15.08854056,0.0001366,53.2159,323.2758,71.2212,288.8928,0.001002,0.00015701,0.0,0 STARLINK-4524,1 53396U 22097J   23077.81953482  .00015701  00000-0  10020-2 0  9994,2 53396  53.2159 323.2758 0001366  71.2212 288.8928 15.08854056 33940,6917.837,95.437,540.647,538.757,0.0
53396.0,STARLINK-4524,PAYLOAD,2023-03-18 22:50:54,15.08855596,0.0001437,53.2162,322.6815,68.6246,291.4899,0.001464,0.00023098,0.0,0 STARLINK-4524,1 53396U 22097J   23077.95201401  .00023098  00000-0  14640-2 0  9996,2 53396  53.2162 322.6815 0001437  68.6246 291.4899 15.08855596 34451,6917.833,95.437,540.692,538.704,0.0
53396.0,STARLINK-4524,PAYLOAD,2023-03-19 02:01:40,15.08860632,0.0001619,53.2166,322.087,72.0856,288.0313,0.0012434,0.00019567,0.0,0 STARLINK-4524,1 53396U 22097J   23078.08449255  .00019567  00000-0  12434-2 0  9997,2 53396  53.2166 322.0870 0001619  72.0856 288.0313 15.08860632 34470,6917.817,95.436,540.802,538.562,0.0
53396.0,STARLINK-4524,PAYLOAD,2023-03-19 21:06:17,15.08852098,0.0001292,53.216,318.5175,77.0196,283.094,0.00059111,9.135e-05,0.0,0 STARLINK-4524,1 53396U 22097J   23078.87937280  .00009135  00000-0  59111-3 0  9998,2 53396  53.2160 318.5175 0001292  77.0196 283.0940 15.08852098 34109,6917.843,95.437,540.602,538.815,0.0
53396.0,STARLINK-4524,PAYLOAD,2023-03-19 22:41:40,15.08846382,0.0001306,53.2154,318.2212,73.5479,286.5657,0.00045774,7.006e-05,0.0,0 STARLINK-4524,1 53396U 22097J   23078.94561307  .00007006  00000-0  45774-3 0  9994,2 53396  53.2154 318.2212 0001306  73.5479 286.5657 15.08846382 34609,6917.861,95.437,540.629,538.822,0.0
53396.0,STARLINK-4524,PAYLOAD,2023-03-20 20:57:05,15.08840126,0.0001302,53.2153,314.0581,77.9357,282.1781,0.00026078,3.865e-05,0.0,0 STARLINK-4524,1 53396U 22097J   23079.87297606  .00003865  00000-0  26078-3 0  9990,2 53396  53.2153 314.0581 0001302  77.9357 282.1781 15.08840126 34251,6917.88,95.438,540.646,538.844,0.0
53396.0,STARLINK-4524,PAYLOAD,2023-03-20 22:32:28,15.08846101,0.0001269,53.215,313.7594,72.2751,287.8379,0.00048609,7.458e-05,0.0,0 STARLINK-4524,1 53396U 22097J   23079.93921470  .00007458  00000-0  48609-3 0  9996,2 53396  53.2150 313.7594 0001269  72.2751 287.8379 15.08846101 34755,6917.862,95.437,540.605,538.849,0.0
53396.0,STARLINK-4524,PAYLOAD,2023-03-21 22:23:15,15.0884106,0.0001081,53.2143,309.3005,88.8878,271.2238,0.00022006,3.216e-05,0.0,0 STARLINK-4524,1 53396U 22097J   23080.93281506  .00003216  00000-0  22006-3 0  9998,2 53396  53.2143 309.3005 0001081  88.8878 271.2238 15.08841060 34413,6917.877,95.437,540.49,538.994,0.0
53396.0,STARLINK-4524,PAYLOAD,2023-03-22 20:38:39,15.08838639,0.0001424,53.2155,305.139,106.4116,253.7033,9.3668e-05,1.203e-05,0.0,0 STARLINK-4524,1 53396U 22097J   23081.86017574  .00001203  00000-0  93668-4 0  9990,2 53396  53.2155 305.1390 0001424 106.4116 253.7033 15.08838639 35046,6917.885,95.438,540.735,538.764,0.0
53396.0,STARLINK-4524,PAYLOAD,2023-03-22 23:49:25,15.08842775,0.0001652,53.2161,304.5441,113.7393,246.3773,0.00012597,1.717e-05,0.0,0 STARLINK-4524,1 53396U 22097J   23081.99265439  .00001717  00000-0  12597-3 0  9990,2 53396  53.2161 304.5441 0001652 113.7393 246.3773 15.08842775 34576,6917.872,95.437,540.88,538.594,0.0
53396.0,STARLINK-4524,PAYLOAD,2023-03-23 22:04:49,15.08846933,0.0001529,53.2127,300.3725,152.6651,207.4422,-2.9592e-05,-7.59e-06,0.0,0 STARLINK-4524,1 53396U 22097J   23082.92001305 -.00000759  00000-0 -29592-4 0  9995,2 53396  53.2127 300.3725 0001529 152.6651 207.4422 15.08846933 35209,6917.859,95.437,540.782,538.666,0.0
53396.0,STARLINK-4524,PAYLOAD,2023-03-23 23:40:12,15.08847621,0.0001096,53.2144,300.0794,67.7991,292.3117,0.00033467,5.044e-05,0.0,0 STARLINK-4524,1 53396U 22097J   23082.98625905  .00005044  00000-0  33467-3 0  9994,2 53396  53.2144 300.0794 0001096  67.7991 292.3117 15.08847621 35213,6917.857,95.437,540.48,538.964,0.0
